[{"OBJECT_NAME":"STARLINK-4389","OBJECT_ID":"2022-099L","EPOCH":"2026-03-09T21:51:46.754784","MEAN_MOTION":15.01257351,"ECCENTRICITY":0.00021959,"INCLINATION":97.601,"RA_OF_ASC_NODE":190.4244,"ARG_OF_PERICENTER":219.9903,"MEAN_ANOMALY":140.116,"EPHEMERIS_TYPE":0,"CLASSIFICATION_TYPE":"U","NORAD_CAT_ID":53475,"ELEMENT_SET_NO":999,"REV_AT_EPOCH":19671,"BSTAR":4.4061171e-5,"MEAN_MOTION_DOT":5.08e-6,"MEAN_MOTION_DDOT":0},{"OBJECT_NAME":"HAWK-9C","OBJECT_ID":"2024-066G","EPOCH":"2026-03-08T13:33:16.734528","MEAN_MOTION":14.98771048,"ECCENTRICITY":0.00034369,"INCLINATION":45.5963,"RA_OF_ASC_NODE":76.3952,"ARG_OF_PERICENTER":229.7565,"MEAN_ANOMALY":130.3016,"EPHEMERIS_TYPE":0,"CLASSIFICATION_TYPE":"U","NORAD_CAT_ID":59448,"ELEMENT_SET_NO":999,"REV_AT_EPOCH":10473,"BSTAR":0.00026713286,"MEAN_MOTION_DOT":3.036e-5,"MEAN_MOTION_DDOT":0}]
